{
  "type": "FeatureCollection",
  "features": [
    {
      "type": "Feature",
      "properties": {
        "norad_id": 57400,
        "name": "TIANMU-1 08",
        "group": "weather",
        "lat": 52.88743670143488,
        "lon": 36.67013510449594,
        "alt_km": 471.4346021887786,
        "timestamp": "2025-12-22T23:36:20.342484+00:00",
        "meta_object_name": "TIANMU-1 08",
        "meta_object_id": "2023-101B",
        "meta_epoch": "2025-12-22T13:56:36.945888",
        "meta_mean_motion": 15.28185238,
        "meta_eccentricity": 0.00071226,
        "meta_inclination": 97.2848,
        "meta_ra_of_asc_node": 46.0101,
        "meta_arg_of_pericenter": 56.1989,
        "meta_mean_anomaly": 303.9928,
        "meta_ephemeris_type": 0,
        "meta_classification_type": "U",
        "meta_norad_cat_id": 57400,
        "meta_element_set_no": 999,
        "meta_rev_at_epoch": 13465,
        "meta_bstar": 0.00027343958,
        "meta_mean_motion_dot": 7.444e-05,
        "meta_mean_motion_ddot": 0,
        "tle_line1": "1 57400U 23101B   25356.58098317  .00007444  00000+0  27344-3 0  9996",
        "tle_line2": "2 57400  97.2848  46.0101 0007122  56.1989 303.9928 15.28185238134654"
      },
      "geometry": {
        "type": "Point",
        "coordinates": [
          36.67013510449594,
          52.88743670143488
        ]
      }
    },
    {
      "type": "Feature",
      "properties": {
        "norad_id": 57401,
        "name": "TIANMU-1 09",
        "group": "weather",
        "lat": 51.86665749755915,
        "lon": -124.71566770498615,
        "alt_km": 474.9950057092692,
        "timestamp": "2025-12-22T23:36:20.342495+00:00",
        "meta_object_name": "TIANMU-1 09",
        "meta_object_id": "2023-101C",
        "meta_epoch": "2025-12-22T13:37:17.607360",
        "meta_mean_motion": 15.28219722,
        "meta_eccentricity": 0.00063938,
        "meta_inclination": 97.2805,
        "meta_ra_of_asc_node": 45.5052,
        "meta_arg_of_pericenter": 56.9176,
        "meta_mean_anomaly": 303.2677,
        "meta_ephemeris_type": 0,
        "meta_classification_type": "U",
        "meta_norad_cat_id": 57401,
        "meta_element_set_no": 999,
        "meta_rev_at_epoch": 13465,
        "meta_bstar": 0.00030810086,
        "meta_mean_motion_dot": 8.406e-05,
        "meta_mean_motion_ddot": 0,
        "tle_line1": "1 57401U 23101C   25356.56756490  .00008406  00000+0  30810-3 0  9999",
        "tle_line2": "2 57401  97.2805  45.5052 0006393  56.9176 303.2677 15.28219722134652"
      },
      "geometry": {
        "type": "Point",
        "coordinates": [
          -124.71566770498615,
          51.86665749755915
        ]
      }
    },
    {
      "type": "Feature",
      "properties": {
        "norad_id": 57402,
        "name": "TIANMU-1 10",
        "group": "weather",
        "lat": -60.308089468587255,
        "lon": 59.74341956157093,
        "alt_km": 490.62178247073643,
        "timestamp": "2025-12-22T23:36:20.342505+00:00",
        "meta_object_name": "TIANMU-1 10",
        "meta_object_id": "2023-101D",
        "meta_epoch": "2025-12-22T14:26:38.049792",
        "meta_mean_motion": 15.28211537,
        "meta_eccentricity": 0.00081106,
        "meta_inclination": 97.2884,
        "meta_ra_of_asc_node": 46.3989,
        "meta_arg_of_pericenter": 54.665,
        "meta_mean_anomaly": 305.5347,
        "meta_ephemeris_type": 0,
        "meta_classification_type": "U",
        "meta_norad_cat_id": 57402,
        "meta_element_set_no": 999,
        "meta_rev_at_epoch": 13465,
        "meta_bstar": 0.00028422601,
        "meta_mean_motion_dot": 7.749e-05,
        "meta_mean_motion_ddot": 0,
        "tle_line1": "1 57402U 23101D   25356.60182928  .00007749  00000+0  28423-3 0  9990",
        "tle_line2": "2 57402  97.2884  46.3989 0008110  54.6650 305.5347 15.28211537134654"
      },
      "geometry": {
        "type": "Point",
        "coordinates": [
          59.74341956157093,
          -60.308089468587255
        ]
      }
    },
    {
      "type": "Feature",
      "properties": {
        "norad_id": 57490,
        "name": "FENGYUN 3F",
        "group": "weather",
        "lat": 6.456975668579509,
        "lon": -113.89525247931884,
        "alt_km": 827.4506113143743,
        "timestamp": "2025-12-22T23:36:20.342516+00:00",
        "meta_object_name": "FENGYUN 3F",
        "meta_object_id": "2023-111A",
        "meta_epoch": "2025-12-22T14:20:08.932704",
        "meta_mean_motion": 14.19896032,
        "meta_eccentricity": 7.874e-05,
        "meta_inclination": 98.707,
        "meta_ra_of_asc_node": 64.7311,
        "meta_arg_of_pericenter": 114.9811,
        "meta_mean_anomaly": 245.1448,
        "meta_ephemeris_type": 0,
        "meta_classification_type": "U",
        "meta_norad_cat_id": 57490,
        "meta_element_set_no": 999,
        "meta_rev_at_epoch": 12380,
        "meta_bstar": 5.613798e-05,
        "meta_mean_motion_dot": 7.6e-07,
        "meta_mean_motion_ddot": 0,
        "tle_line1": "1 57490U 23111A   25356.59732561  .00000076  00000+0  56138-4 0  9991",
        "tle_line2": "2 57490  98.7070  64.7311 0000787 114.9811 245.1448 14.19896032123802"
      },
      "geometry": {
        "type": "Point",
        "coordinates": [
          -113.89525247931884,
          6.456975668579509
        ]
      }
    },
    {
      "type": "Feature",
      "properties": {
        "norad_id": 58584,
        "name": "ARKTIKA-M 2",
        "group": "weather",
        "lat": 61.84599447192491,
        "lon": -115.51158849178066,
        "alt_km": 37675.446810880814,
        "timestamp": "2025-12-22T23:36:20.342528+00:00",
        "meta_object_name": "ARKTIKA-M 2",
        "meta_object_id": "2023-198A",
        "meta_epoch": "2025-12-20T07:20:06.590112",
        "meta_mean_motion": 2.00602824,
        "meta_eccentricity": 0.68654675,
        "meta_inclination": 63.225,
        "meta_ra_of_asc_node": 174.0676,
        "meta_arg_of_pericenter": 268.0739,
        "meta_mean_anomaly": 18.8406,
        "meta_ephemeris_type": 0,
        "meta_classification_type": "U",
        "meta_norad_cat_id": 58584,
        "meta_element_set_no": 999,
        "meta_rev_at_epoch": 1473,
        "meta_bstar": 0,
        "meta_mean_motion_dot": 2.01e-06,
        "meta_mean_motion_ddot": 0,
        "tle_line1": "1 58584U 23198A   25354.30563183  .00000201  00000+0  00000+0 0  9992",
        "tle_line2": "2 58584  63.2250 174.0676 6865467 268.0739  18.8406  2.00602824 14734"
      },
      "geometry": {
        "type": "Point",
        "coordinates": [
          -115.51158849178066,
          61.84599447192491
        ]
      }
    },
    {
      "type": "Feature",
      "properties": {
        "norad_id": 58645,
        "name": "TIANMU-1 11",
        "group": "weather",
        "lat": -10.227316576986814,
        "lon": 17.763015461158865,
        "alt_km": 495.31851025048036,
        "timestamp": "2025-12-22T23:36:20.342543+00:00",
        "meta_object_name": "TIANMU-1 11",
        "meta_object_id": "2023-205A",
        "meta_epoch": "2025-12-22T14:12:01.092384",
        "meta_mean_motion": 15.24711219,
        "meta_eccentricity": 0.00075416,
        "meta_inclination": 97.3593,
        "meta_ra_of_asc_node": 16.0418,
        "meta_arg_of_pericenter": 268.3007,
        "meta_mean_anomaly": 91.7367,
        "meta_ephemeris_type": 0,
        "meta_classification_type": "U",
        "meta_norad_cat_id": 58645,
        "meta_element_set_no": 999,
        "meta_rev_at_epoch": 11059,
        "meta_bstar": 0.00025244472,
        "meta_mean_motion_dot": 6.179e-05,
        "meta_mean_motion_ddot": 0,
        "tle_line1": "1 58645U 23205A   25356.59167931  .00006179  00000+0  25244-3 0  9994",
        "tle_line2": "2 58645  97.3593  16.0418 0007541 268.3007  91.7367 15.24711219110591"
      },
      "geometry": {
        "type": "Point",
        "coordinates": [
          17.763015461158865,
          -10.227316576986814
        ]
      }
    },
    {
      "type": "Feature",
      "properties": {
        "norad_id": 58646,
        "name": "TIANMU-1 12",
        "group": "weather",
        "lat": -17.59807885867052,
        "lon": -166.1203004431028,
        "alt_km": 494.32653799511536,
        "timestamp": "2025-12-22T23:36:20.342555+00:00",
        "meta_object_name": "TIANMU-1 12",
        "meta_object_id": "2023-205B",
        "meta_epoch": "2025-12-22T13:17:23.306208",
        "meta_mean_motion": 15.24596942,
        "meta_eccentricity": 0.00058591,
        "meta_inclination": 97.3581,
        "meta_ra_of_asc_node": 15.8066,
        "meta_arg_of_pericenter": 246.6772,
        "meta_mean_anomaly": 113.3849,
        "meta_ephemeris_type": 0,
        "meta_classification_type": "U",
        "meta_norad_cat_id": 58646,
        "meta_element_set_no": 999,
        "meta_rev_at_epoch": 11057,
        "meta_bstar": 0.00027590191,
        "meta_mean_motion_dot": 6.735e-05,
        "meta_mean_motion_ddot": 0,
        "tle_line1": "1 58646U 23205B   25356.55374197  .00006735  00000+0  27590-3 0  9999",
        "tle_line2": "2 58646  97.3581  15.8066 0005859 246.6772 113.3849 15.24596942110571"
      },
      "geometry": {
        "type": "Point",
        "coordinates": [
          -166.1203004431028,
          -17.59807885867052
        ]
      }
    }
  ]
}